SAUDISAT 1C (SO-50)     
1 27607U 02058C   26204.09590113  .00000878  00000+0  12088-3 0  9993
2 27607  64.5523  17.8775 0074285 255.8289 103.4556 14.83110516269785
SAUDISAT 2              
1 28371U 04025F   26204.22802914  .00000212  00000+0  58424-4 0  9995
2 28371  98.5526 205.1444 0024593 183.1701 176.9344 14.56701476170993
SAUDISAT 3              
1 31118U 07012B   26204.29963043  .00000230  00000+0  45272-4 0  9992
2 31118  98.1471 154.7279 0015928 110.8048 249.4867 14.71443732 33055
PISAT                   
1 41784U 16059B   26204.24455119  .00000879  00000+0  15677-3 0  9992
2 41784  97.8196 203.1513 0030580  90.3402 270.1309 14.69040708525031
FLYING LAPTOP           
1 42831U 17042G   26204.31128138  .00003277  00000+0  25791-3 0  9998
2 42831  97.4850 358.4943 0019179   6.7641 353.3839 15.01350719491875
SALSAT                  
1 46495U 20068K   26204.24596903  .00007467  00000+0  25762-3 0  9994
2 46495  97.8868 209.5206 0010069 165.1541 194.9995 15.30255611320874
